IRIDIUM 155             
1 43573U 18061E   25281.38627628  .00000987  00000+0  34547-3 0  9997
2 43573  86.4016 161.9324 0002357  79.3786 280.7675 14.34218185377269
IRIDIUM 154             
1 43574U 18061F   25281.22772481  .00000367  00000+0  12409-3 0  9994
2 43574  86.4022 162.1195 0002111  82.5319 277.6116 14.34211612377298
IRIDIUM 163             
1 43575U 18061G   25281.06915074  .00000021  00000+0  52427-6 0  9998
2 43575  86.4024 162.1092 0002182  87.5719 272.5727 14.34217275377242
IRIDIUM 156             
1 43576U 18061H   25281.39262083  .00000335  00000+0  11240-3 0  9993
2 43576  86.4019 161.9812 0002252  76.7173 283.4274 14.34217971377281
IRIDIUM 164             
1 43577U 18061J   25281.09451709  .00000317  00000+0  10608-3 0  9993
2 43577  86.4019 162.1418 0001992  80.0259 280.1162 14.34217131377288
IRIDIUM 159             
1 43578U 18061K   25281.41164904  .00000242  00000+0  79313-4 0  9994
2 43578  86.4020 161.9517 0002061  87.7410 272.4022 14.34218685377294
IRIDIUM 180             
1 43922U 19002A   25281.48091299  .00000014  00000+0 -20233-5 0  9992
2 43922  86.3912  98.8352 0002114  91.3209 268.8229 14.34217611352915
IRIDIUM 176             
1 43923U 19002B   25281.47457680  .00000513  00000+0  77501-4 0  9994
2 43923  86.6037  98.8182 0002804  77.4056 282.7475 14.72251988362218
IRIDIUM 168             
1 43924U 19002C   25281.47457126  .00000015  00000+0 -17937-5 0  9996
2 43924  86.3915  98.9082 0002054  88.5776 271.5655 14.34217363352896
IRIDIUM 173             
1 43925U 19002D   25281.46188556  .00000040  00000+0  71370-5 0  9992
2 43925  86.3909  98.8125 0002301  89.4814 270.6646 14.34217795352872
IRIDIUM 169             
1 43926U 19002E   25281.52991514  .00000433  00000+0  13493-3 0  9992
2 43926  86.4213 130.4259 0003364  76.6804 283.4770 14.38609644354043
IRIDIUM 172             
1 43927U 19002F   25281.52531046  .00000067  00000+0  16919-4 0  9993
2 43927  86.3912  98.7932 0002148  96.4951 263.6489 14.34217836352897
IRIDIUM 175             
1 43928U 19002G   25281.40178937  .00001679  00000+0  26232-3 0  9995
2 43928  86.1512  44.9168 0001944  69.5209 290.6216 14.72245178362190
IRIDIUM 171             
1 43929U 19002H   25281.01790451 -.00000024  00000+0 -15659-4 0  9991
2 43929  86.3920  99.2842 0001883  81.1500 278.9909 14.34217021352814
IRIDIUM 170             
1 43930U 19002J   25281.48074886  .00000335  00000+0  49180-4 0  9990
2 43930  86.6036  98.8194 0002258  87.3102 272.8373 14.72254518362223
IRIDIUM 167             
1 43931U 19002K   25281.49994095  .00000019  00000+0 -29817-6 0  9992
2 43931  86.3911  98.8241 0002147  77.6184 282.5252 14.34217587352883
IRIDIUM 181             
1 56726U 23068S   25281.64883822  .00000474  00000+0  13493-3 0  9991
2 56726  86.4559 161.9026 0001587  80.1914 279.9466 14.43299133126151
IRIDIUM 177             
1 56727U 23068T   25281.50660461  .00000741  00000+0  93984-4 0  9990
2 56727  86.1918  88.3165 0002156  87.2979 272.8489 14.80229214129138
IRIDIUM 174             
1 56728U 23068U   25281.46841102  .00000553  00000+0  83759-4 0  9999
2 56728  86.6045  98.9469 0002735  96.1163 264.0366 14.72243445128988
IRIDIUM 178             
1 56729U 23068V   25281.49570802  .00001678  00000+0  21741-3 0  9990
2 56729  86.6532 130.5666 0002393  74.5142 285.6344 14.80234945129136
IRIDIUM 179             
1 56730U 23068W   25281.55789102  .00000613  00000+0  77230-4 0  9997
2 56730  86.6786 138.7609 0002341  64.0475 296.0988 14.80215112129148
